start=new Date('2022-11-24T00:00:00.000Z').valueOf();
sats=[{"SEMIMAJOR_AXIS":"6925.349","TLE_LINE2":"2 45233  53.0567  21.7572 0001850  57.9470 302.1698 15.06399923153965","EPOCH":"2022-11-23T21:05:14.424288","MEAN_MOTION":"15.06399923","MEAN_MOTION_DOT":"0.00001388","REF_FRAME":"TEME","GP_ID":"218597109","EPHEMERIS_TYPE":"0","RA_OF_ASC_NODE":"21.7572","FILE":"3668355","CLASSIFICATION_TYPE":"U","OBJECT_TYPE":"PAYLOAD","MEAN_ANOMALY":"302.1698","ECCENTRICITY":"0.00018500","OBJECT_NAME":"STARLINK-1238","TIME_SYSTEM":"UTC","OBJECT_ID":"2020-012BH","PERIOD":"95.592","DECAY_DATE":null,"CENTER_NAME":"EARTH","MEAN_MOTION_DDOT":"0.0000000000000","REV_AT_EPOCH":"15396","INCLINATION":"53.0567","ARG_OF_PERICENTER":"57.9470","LAUNCH_DATE":"2020-02-17","COUNTRY_CODE":"US","BSTAR":"0.00011204000000","NORAD_CAT_ID":"45233","RCS_SIZE":"LARGE","ELEMENT_SET_NO":"999","PERIAPSIS":"545.933","SITE":"AFETR","TLE_LINE1":"1 45233U 20012BH  22327.87863917  .00001388  00000-0  11204-3 0  9998","APOAPSIS":"548.495","MEAN_ELEMENT_THEORY":"SGP4"},{"ELEMENT_SET_NO":"999","PERIAPSIS":"546.610","APOAPSIS":"547.806","TLE_LINE1":"1 45234U 20012BJ  22327.85098960  .00001907  00000-0  14684-3 0  9997","MEAN_ELEMENT_THEORY":"SGP4","SITE":"AFETR","LAUNCH_DATE":"2020-02-17","ARG_OF_PERICENTER":"100.6438","INCLINATION":"53.0552","BSTAR":"0.00014684000000","COUNTRY_CODE":"US","RCS_SIZE":"LARGE","NORAD_CAT_ID":"45234","OBJECT_ID":"2020-012BJ","TIME_SYSTEM":"UTC","OBJECT_NAME":"STARLINK-1243","ECCENTRICITY":"0.00008640","MEAN_ANOMALY":"259.4648","PERIOD":"95.592","MEAN_MOTION_DDOT":"0.0000000000000","CENTER_NAME":"EARTH","DECAY_DATE":null,"REV_AT_EPOCH":"15366","TLE_LINE2":"2 45234  53.0552  41.8963 0000864 100.6438 259.4648 15.06401774153665","SEMIMAJOR_AXIS":"6925.343","MEAN_MOTION":"15.06401774","MEAN_MOTION_DOT":"0.00001907","EPOCH":"2022-11-23T20:25:25.501440","CLASSIFICATION_TYPE":"U","FILE":"3668355","GP_ID":"218597359","RA_OF_ASC_NODE":"41.8963","EPHEMERIS_TYPE":"0","REF_FRAME":"TEME","OBJECT_TYPE":"PAYLOAD"},{"OBJECT_TYPE":"PAYLOAD","REF_FRAME":"TEME","GP_ID":"218598610","RA_OF_ASC_NODE":"42.8448","EPHEMERIS_TYPE":"0","FILE":"3668355","CLASSIFICATION_TYPE":"U","EPOCH":"2022-11-23T15:17:35.565216","MEAN_MOTION_DOT":"0.00000735","MEAN_MOTION":"15.06391092","SEMIMAJOR_AXIS":"6925.376","TLE_LINE2":"2 45235  53.0575  42.8448 0001735  54.0039 306.1110 15.06391092153684","REV_AT_EPOCH":"15368","CENTER_NAME":"EARTH","DECAY_DATE":null,"MEAN_MOTION_DDOT":"0.0000000000000","PERIOD":"95.593","MEAN_ANOMALY":"306.1110","ECCENTRICITY":"0.00017350","TIME_SYSTEM":"UTC","OBJECT_NAME":"STARLINK-1246","OBJECT_ID":"2020-012BK","NORAD_CAT_ID":"45235","RCS_SIZE":"LARGE","COUNTRY_CODE":"US","BSTAR":"0.00006826400000","INCLINATION":"53.0575","ARG_OF_PERICENTER":"54.0039","LAUNCH_DATE":"2020-02-17","SITE":"AFETR","APOAPSIS":"548.442","TLE_LINE1":"1 45235U 20012BK  22327.63721719  .00000735  00000-0  68264-4 0  9991","MEAN_ELEMENT_THEORY":"SGP4","PERIAPSIS":"546.039","ELEMENT_SET_NO":"999"},{"RCS_SIZE":"LARGE","NORAD_CAT_ID":"45236","LAUNCH_DATE":"2020-02-17","ARG_OF_PERICENTER":"55.7705","INCLINATION":"53.0559","BSTAR":"0.00001147900000","COUNTRY_CODE":"US","APOAPSIS":"548.324","TLE_LINE1":"1 45236U 20012BL  22327.81781947 -.00000111  00000-0  11479-4 0  9996","MEAN_ELEMENT_THEORY":"SGP4","SITE":"AFETR","PERIAPSIS":"546.108","ELEMENT_SET_NO":"999","CLASSIFICATION_TYPE":"U","FILE":"3668355","GP_ID":"218598353","RA_OF_ASC_NODE":"2.0394","EPHEMERIS_TYPE":"0","REF_FRAME":"TEME","OBJECT_TYPE":"PAYLOAD","TLE_LINE2":"2 45236  53.0559   2.0394 0001600  55.7705 304.3436 15.06399176154249","SEMIMAJOR_AXIS":"6925.351","MEAN_MOTION_DOT":"-0.00000111","MEAN_MOTION":"15.06399176","EPOCH":"2022-11-23T19:37:39.602208","MEAN_MOTION_DDOT":"0.0000000000000","DECAY_DATE":null,"CENTER_NAME":"EARTH","REV_AT_EPOCH":"15424","OBJECT_ID":"2020-012BL","OBJECT_NAME":"STARLINK-1247","TIME_SYSTEM":"UTC","ECCENTRICITY":"0.00016000","MEAN_ANOMALY":"304.3436","PERIOD":"95.592"},{"PERIOD":"95.592","TIME_SYSTEM":"UTC","OBJECT_NAME":"STARLINK-1270","MEAN_ANOMALY":"299.6876","ECCENTRICITY":"0.00016610","OBJECT_ID":"2020-012BM","REV_AT_EPOCH":"15421","MEAN_MOTION_DDOT":"0.0000000000000","CENTER_NAME":"EARTH","DECAY_DATE":null,"EPOCH":"2022-11-23T13:47:21.164928","MEAN_MOTION_DOT":"0.00001141","MEAN_MOTION":"15.06401271","TLE_LINE2":"2 45237  53.0545   3.1153 0001661  60.4278 299.6876 15.06401271154216","SEMIMAJOR_AXIS":"6925.345","OBJECT_TYPE":"PAYLOAD","EPHEMERIS_TYPE":"0","GP_ID":"218541139","RA_OF_ASC_NODE":"3.1153","REF_FRAME":"TEME","CLASSIFICATION_TYPE":"U","FILE":"3668134","PERIAPSIS":"546.059","ELEMENT_SET_NO":"999","SITE":"AFETR","MEAN_ELEMENT_THEORY":"SGP4","TLE_LINE1":"1 45237U 20012BM  22327.57455052  .00001141  00000-0  95470-4 0  9991","APOAPSIS":"548.360","COUNTRY_CODE":"US","BSTAR":"0.00009547000000","ARG_OF_PERICENTER":"60.4278","INCLINATION":"53.0545","LAUNCH_DATE":"2020-02-17","RCS_SIZE":"LARGE","NORAD_CAT_ID":"45237"},{"NORAD_CAT_ID":"45360","RCS_SIZE":"LARGE","INCLINATION":"53.0537","ARG_OF_PERICENTER":"64.9823","LAUNCH_DATE":"2020-03-18","COUNTRY_CODE":"US","BSTAR":"0.00011290000000","SITE":"AFETR","MEAN_ELEMENT_THEORY":"SGP4","TLE_LINE1":"1 45360U 20019A   22327.73213565  .00001400  00000-0  11290-3 0  9999","APOAPSIS":"548.348","PERIAPSIS":"546.082","ELEMENT_SET_NO":"999","REF_FRAME":"TEME","GP_ID":"218597122","EPHEMERIS_TYPE":"0","RA_OF_ASC_NODE":"132.4209","FILE":"3668355","CLASSIFICATION_TYPE":"U","OBJECT_TYPE":"PAYLOAD","SEMIMAJOR_AXIS":"6925.350","TLE_LINE2":"2 45360  53.0537 132.4209 0001636  64.9823 295.1335 15.06399551148973","EPOCH":"2022-11-23T17:34:16.520160","MEAN_MOTION_DOT":"0.00001400","MEAN_MOTION":"15.06399551","DECAY_DATE":null,"CENTER_NAME":"EARTH","MEAN_MOTION_DDOT":"0.0000000000000","REV_AT_EPOCH":"14897","ECCENTRICITY":"0.00016360","MEAN_ANOMALY":"295.1335","TIME_SYSTEM":"UTC","OBJECT_NAME":"STARLINK-1279","OBJECT_ID":"2020-019A","PERIOD":"95.592"},{"BSTAR":"0.00010165000000","COUNTRY_CODE":"US","LAUNCH_DATE":"2020-03-18","INCLINATION":"53.0532","ARG_OF_PERICENTER":"79.4636","NORAD_CAT_ID":"45361","RCS_SIZE":"LARGE","PERIAPSIS":"546.245","ELEMENT_SET_NO":"999","APOAPSIS":"548.210","TLE_LINE1":"1 45361U 20019B   22327.78649165  .00001233  00000-0  10165-3 0  9998","MEAN_ELEMENT_THEORY":"SGP4","SITE":"AFETR","MEAN_MOTION_DOT":"0.00001233","MEAN_MOTION":"15.06395542","EPOCH":"2022-11-23T18:52:32.878560","SEMIMAJOR_AXIS":"6925.362","TLE_LINE2":"2 45361  53.0532 142.1781 0001419  79.4636 280.6513 15.06395542148854","OBJECT_TYPE":"PAYLOAD","FILE":"3668355","CLASSIFICATION_TYPE":"U","REF_FRAME":"TEME","GP_ID":"218597372","RA_OF_ASC_NODE":"142.1781","EPHEMERIS_TYPE":"0","PERIOD":"95.592","OBJECT_ID":"2020-019B","ECCENTRICITY":"0.00014190","MEAN_ANOMALY":"280.6513","OBJECT_NAME":"STARLINK-1301","TIME_SYSTEM":"UTC","REV_AT_EPOCH":"14885","CENTER_NAME":"EARTH","DECAY_DATE":null,"MEAN_MOTION_DDOT":"0.0000000000000"},{"EPOCH":"2022-11-23T19:58:53.450976","MEAN_MOTION_DOT":"0.00001201","MEAN_MOTION":"15.06399552","SEMIMAJOR_AXIS":"6925.350","TLE_LINE2":"2 45362  53.0550 161.9775 0001585  72.2655 287.8507 15.06399552148580","OBJECT_TYPE":"PAYLOAD","REF_FRAME":"TEME","GP_ID":"218577132","EPHEMERIS_TYPE":"0","RA_OF_ASC_NODE":"161.9775","FILE":"3668319","CLASSIFICATION_TYPE":"U","PERIOD":"95.592","ECCENTRICITY":"0.00015850","MEAN_ANOMALY":"287.8507","TIME_SYSTEM":"UTC","OBJECT_NAME":"STARLINK-1306","OBJECT_ID":"2020-019C","REV_AT_EPOCH":"14858","CENTER_NAME":"EARTH","DECAY_DATE":null,"MEAN_MOTION_DDOT":"0.0000000000000","COUNTRY_CODE":"US","BSTAR":"0.00009948600000","INCLINATION":"53.0550","ARG_OF_PERICENTER":"72.2655","LAUNCH_DATE":"2020-03-18","NORAD_CAT_ID":"45362","RCS_SIZE":"LARGE","PERIAPSIS":"546.117","ELEMENT_SET_NO":"999","SITE":"AFETR","TLE_LINE1":"1 45362U 20019C   22327.83256309  .00001201  00000-0  99486-4 0  9998","MEAN_ELEMENT_THEORY":"SGP4","APOAPSIS":"548.313"},{"SEMIMAJOR_AXIS":"6925.361","TLE_LINE2":"2 45364  53.0539 131.8384 0001555  71.1470 288.9688 15.06395929148992","EPOCH":"2022-11-23T20:40:01.857504","MEAN_MOTION":"15.06395929","MEAN_MOTION_DOT":"0.00001029","REF_FRAME":"TEME","GP_ID":"218598366","RA_OF_ASC_NODE":"131.8384","EPHEMERIS_TYPE":"0","FILE":"3668355","CLASSIFICATION_TYPE":"U","OBJECT_TYPE":"PAYLOAD","MEAN_ANOMALY":"288.9688","ECCENTRICITY":"0.00015550","OBJECT_NAME":"STARLINK-1313","TIME_SYSTEM":"UTC","OBJECT_ID":"2020-019E","PERIOD":"95.592","DECAY_DATE":null,"CENTER_NAME":"EARTH","MEAN_MOTION_DDOT":"0.0000000000000","REV_AT_EPOCH":"14899","INCLINATION":"53.0539","ARG_OF_PERICENTER":"71.1470","LAUNCH_DATE":"2020-03-18","COUNTRY_CODE":"US","BSTAR":"0.00008794500000","NORAD_CAT_ID":"45364","RCS_SIZE":"LARGE","ELEMENT_SET_NO":"999","PERIAPSIS":"546.149","SITE":"AFETR","MEAN_ELEMENT_THEORY":"SGP4","TLE_LINE1":"1 45364U 20019E   22327.86113261  .00001029  00000-0  87945-4 0  9997","APOAPSIS":"548.303"},{"CENTER_NAME":"EARTH","DECAY_DATE":null,"MEAN_MOTION_DDOT":"0.0000000000000","REV_AT_EPOCH":"14879","ECCENTRICITY":"0.00017630","MEAN_ANOMALY":"229.4204","TIME_SYSTEM":"UTC","OBJECT_NAME":"STARLINK-1317","OBJECT_ID":"2020-019F","PERIOD":"95.501","REF_FRAME":"TEME","EPHEMERIS_TYPE":"0","GP_ID":"218597623","RA_OF_ASC_NODE":"141.7178","FILE":"3668355","CLASSIFICATION_TYPE":"U","OBJECT_TYPE":"PAYLOAD","SEMIMAJOR_AXIS":"6920.948","TLE_LINE2":"2 45365  52.9969 141.7178 0001763 130.6938 229.4204 15.07836943148799","EPOCH":"2022-11-23T18:27:45.920736","MEAN_MOTION":"15.07836943","MEAN_MOTION_DOT":"0.00012512","SITE":"AFETR","MEAN_ELEMENT_THEORY":"SGP4","TLE_LINE1":"1 45365U 20019F   22327.76928149  .00012512  00000-0  82484-3 0  9997","APOAPSIS":"544.033","ELEMENT_SET_NO":"999","PERIAPSIS":"541.593","NORAD_CAT_ID":"45365","RCS_SIZE":"LARGE","INCLINATION":"52.9969","ARG_OF_PERICENTER":"130.6938","LAUNCH_DATE":"2020-03-18","COUNTRY_CODE":"US","BSTAR":"0.00082484000000"}];
